{
  "type": "Feature",
  "properties": {
    "name": "Supported Regions - Western Balkans (Simplified)",
    "countries": [
      "Serbia",
      "Croatia",
      "Montenegro",
      "Slovenia",
      "Bosnia and Herzegovina",
      "North Macedonia"
    ],
    "note": "Simplified rectangles (approximate coverage). WGS84 lon/lat."
  },
  "geometry": {
    "type": "MultiPolygon",
    "coordinates": [
      [
        [
          [
            18.8,
            42.1
          ],
          [
            23.1,
            42.1
          ],
          [
            23.1,
            46.2
          ],
          [
            18.8,
            46.2
          ],
          [
            18.8,
            42.1
          ]
        ]
      ],
      [
        [
          [
            13.4,
            42.3
          ],
          [
            19.6,
            42.3
          ],
          [
            19.6,
            46.7
          ],
          [
            13.4,
            46.7
          ],
          [
            13.4,
            42.3
          ]
        ]
      ],
      [
        [
          [
            18.3,
            41.8
          ],
          [
            20.5,
            41.8
          ],
          [
            20.5,
            43.7
          ],
          [
            18.3,
            43.7
          ],
          [
            18.3,
            41.8
          ]
        ]
      ],
      [
        [
          [
            13.3,
            45.3
          ],
          [
            16.7,
            45.3
          ],
          [
            16.7,
            47.1
          ],
          [
            13.3,
            47.1
          ],
          [
            13.3,
            45.3
          ]
        ]
      ],
      [
        [
          [
            15.5,
            42.5
          ],
          [
            19.8,
            42.5
          ],
          [
            19.8,
            45.4
          ],
          [
            15.5,
            45.4
          ],
          [
            15.5,
            42.5
          ]
        ]
      ],
      [
        [
          [
            20.4,
            40.8
          ],
          [
            23.1,
            40.8
          ],
          [
            23.1,
            42.4
          ],
          [
            20.4,
            42.4
          ],
          [
            20.4,
            40.8
          ]
        ]
      ]
    ]
  }
}